{
  "type": "FeatureCollection",
  "features": [
    {
      "type": "Feature",
      "properties": {
        "norad_id": 50032,
        "name": "COSMOS 1408 DEB",
        "group": "cosmos-1408-debris",
        "lat": 79.48267364247474,
        "lon": -173.4259332228107,
        "alt_km": 420.7884325351961,
        "timestamp": "2025-12-19T18:58:41.858450+00:00",
        "meta_object_name": "COSMOS 1408 DEB",
        "meta_object_id": "1982-092RU",
        "meta_epoch": "2025-12-18T14:35:30.154560",
        "meta_mean_motion": 15.45751534,
        "meta_eccentricity": 0.00158163,
        "meta_inclination": 82.5642,
        "meta_ra_of_asc_node": 52.4947,
        "meta_arg_of_pericenter": 186.4952,
        "meta_mean_anomaly": 173.6095,
        "meta_ephemeris_type": 0,
        "meta_classification_type": "U",
        "meta_norad_cat_id": 50032,
        "meta_element_set_no": 999,
        "meta_rev_at_epoch": 22694,
        "meta_bstar": 8.736421e-05,
        "meta_mean_motion_dot": 4.285e-05,
        "meta_mean_motion_ddot": 0,
        "tle_line1": "1 50032U 82092RU  25352.60798790  .00004285  00000+0  87364-4 0  9994",
        "tle_line2": "2 50032  82.5642  52.4947 0015816 186.4952 173.6095 15.45751534226940"
      },
      "geometry": {
        "type": "Point",
        "coordinates": [
          -173.4259332228107,
          79.48267364247474
        ]
      }
    },
    {
      "type": "Feature",
      "properties": {
        "norad_id": 50058,
        "name": "COSMOS 1408 DEB",
        "group": "cosmos-1408-debris",
        "lat": 49.75720551720292,
        "lon": 70.77824422821507,
        "alt_km": 360.18398178979896,
        "timestamp": "2025-12-19T18:58:41.858470+00:00",
        "meta_object_name": "COSMOS 1408 DEB",
        "meta_object_id": "1982-092SW",
        "meta_epoch": "2025-12-18T13:35:52.596672",
        "meta_mean_motion": 15.6444692,
        "meta_eccentricity": 0.00161966,
        "meta_inclination": 82.6131,
        "meta_ra_of_asc_node": 63.2424,
        "meta_arg_of_pericenter": 78.9589,
        "meta_mean_anomaly": 281.3491,
        "meta_ephemeris_type": 0,
        "meta_classification_type": "U",
        "meta_norad_cat_id": 50058,
        "meta_element_set_no": 999,
        "meta_rev_at_epoch": 22895,
        "meta_bstar": 0.00028591151,
        "meta_mean_motion_dot": 0.00027692,
        "meta_mean_motion_ddot": 0,
        "tle_line1": "1 50058U 82092SW  25352.56658098  .00027692  00000+0  28591-3 0  9996",
        "tle_line2": "2 50058  82.6131  63.2424 0016196  78.9589 281.3491 15.64446920228956"
      },
      "geometry": {
        "type": "Point",
        "coordinates": [
          70.77824422821507,
          49.75720551720292
        ]
      }
    },
    {
      "type": "Feature",
      "properties": {
        "norad_id": 50404,
        "name": "COSMOS 1408 DEB",
        "group": "cosmos-1408-debris",
        "lat": -24.87467152725559,
        "lon": -155.8335218830675,
        "alt_km": 636.840963339655,
        "timestamp": "2025-12-19T18:58:41.858483+00:00",
        "meta_object_name": "COSMOS 1408 DEB",
        "meta_object_id": "1982-092ADS",
        "meta_epoch": "2025-12-18T14:33:17.055360",
        "meta_mean_motion": 15.14678102,
        "meta_eccentricity": 0.01696438,
        "meta_inclination": 82.2037,
        "meta_ra_of_asc_node": 209.023,
        "meta_arg_of_pericenter": 178.8165,
        "meta_mean_anomaly": 181.3506,
        "meta_ephemeris_type": 0,
        "meta_classification_type": "U",
        "meta_norad_cat_id": 50404,
        "meta_element_set_no": 999,
        "meta_rev_at_epoch": 21282,
        "meta_bstar": 0.0025991893,
        "meta_mean_motion_dot": 0.00069718,
        "meta_mean_motion_ddot": 0,
        "tle_line1": "1 50404U 82092ADS 25352.60644740  .00069718  00000+0  25992-2 0  9991",
        "tle_line2": "2 50404  82.2037 209.0230 0169643 178.8165 181.3506 15.14678102212822"
      },
      "geometry": {
        "type": "Point",
        "coordinates": [
          -155.8335218830675,
          -24.87467152725559
        ]
      }
    },
    {
      "type": "Feature",
      "properties": {
        "norad_id": 50621,
        "name": "COSMOS 1408 DEB",
        "group": "cosmos-1408-debris",
        "lat": -57.10399248531862,
        "lon": -101.5210313085088,
        "alt_km": 410.4426249789185,
        "timestamp": "2025-12-19T18:58:41.858494+00:00",
        "meta_object_name": "COSMOS 1408 DEB",
        "meta_object_id": "1982-092ALR",
        "meta_epoch": "2025-12-19T05:37:22.437408",
        "meta_mean_motion": 15.56987521,
        "meta_eccentricity": 0.00290662,
        "meta_inclination": 82.5701,
        "meta_ra_of_asc_node": 67.4189,
        "meta_arg_of_pericenter": 128.8884,
        "meta_mean_anomaly": 231.4971,
        "meta_ephemeris_type": 0,
        "meta_classification_type": "U",
        "meta_norad_cat_id": 50621,
        "meta_element_set_no": 999,
        "meta_rev_at_epoch": 22351,
        "meta_bstar": 0.00027431158,
        "meta_mean_motion_dot": 0.00020232,
        "meta_mean_motion_ddot": 0,
        "tle_line1": "1 50621U 82092ALR 25353.23428747  .00020232  00000+0  27431-3 0  9998",
        "tle_line2": "2 50621  82.5701  67.4189 0029066 128.8884 231.4971 15.56987521223515"
      },
      "geometry": {
        "type": "Point",
        "coordinates": [
          -101.5210313085088,
          -57.10399248531862
        ]
      }
    }
  ]
}